GLOBALSTAR M067         
1 32263U 07048A   25050.94711977 -.00000074  00000+0  17093-3 0  9996
2 32263  51.9753  18.9843 0001238  87.5058 309.6429 12.40666221794933
GLOBALSTAR M070         
1 32264U 07048B   25050.46188572 -.00000062  00000+0  23275-3 0  9999
2 32264  51.9745 127.1420 0000677 139.2344 234.0960 12.62312290798807
GLOBALSTAR M066         
1 32265U 07048C   25049.60502506 -.00000075  00000+0  16402-3 0  9999
2 32265  51.9697   8.9922 0000461  52.7740 118.3447 12.42170823800649
GLOBALSTAR M068         
1 32266U 07048D   25050.93232196 -.00000052  00000+0  28924-3 0  9990
2 32266  51.9892 299.6904 0000244 189.3444 238.2323 12.62815700802743
GLOBALSTAR M079         
1 37188U 10054A   25050.76709745 -.00000081  00000+0  12786-3 0  9990
2 37188  52.0034 137.2331 0000773  93.8581  58.0374 12.62271012661626
GLOBALSTAR M074         
1 37189U 10054B   25050.95620809 -.00000075  00000+0  16271-3 0  9991
2 37189  52.0012 135.9988 0000873 120.9098  49.9748 12.62266512662255
GLOBALSTAR M076         
1 37190U 10054C   25050.81664601 -.00000085  00000+0  10732-3 0  9993
2 37190  52.0025 136.5807 0001035 105.9988  32.6166 12.62277819661951
GLOBALSTAR M077         
1 37191U 10054D   25050.89020139 -.00000099  00000+0  27476-4 0  9993
2 37191  52.0066  93.1824 0000506 119.5799  51.3944 12.62271085662331
